NORAD_CAT_ID,OBJECT_NAME,OBJECT_TYPE,EPOCH,MEAN_MOTION,ECCENTRICITY,INCLINATION,RA_OF_ASC_NODE,ARG_OF_PERICENTER,MEAN_ANOMALY,BSTAR,MEAN_MOTION_DOT,MEAN_MOTION_DDOT,TLE_LINE0,TLE_LINE1,TLE_LINE2,SEMIMAJOR_AXIS,PERIOD,APOGEE,PERIGEE,DECAYED
53392.0,STARLINK-4535,PAYLOAD,2024-02-17 19:22:54,15.08845847,0.0001388,53.217,254.961,92.6493,267.4658,0.00013138,1.804e-05,0.0,0 STARLINK-4535,1 53392U 22097E   24048.80757468  .00001804  00000-0  13138-3 0  9997,2 53392  53.2170 254.9610 0001388  92.6493 267.4658 15.08845847 84664,6917.863,95.437,540.688,538.767,0.0
53392.0,STARLINK-4535,PAYLOAD,2024-02-18 06:30:36,15.08835347,0.0001422,53.2168,252.8798,94.1111,266.0044,0.00028151,4.195e-05,0.0,0 STARLINK-4535,1 53392U 22097E   24049.27125914  .00004195  00000-0  28151-3 0  9991,2 53392  53.2168 252.8798 0001422  94.1111 266.0044 15.08835347 84734,6917.895,95.438,540.743,538.776,0.0
53392.0,STARLINK-4535,PAYLOAD,2024-02-18 12:52:09,15.0884016,0.0001389,53.2166,251.6908,90.2049,269.9103,0.00013493,1.86e-05,0.0,0 STARLINK-4535,1 53392U 22097E   24049.53621812  .00001860  00000-0  13493-3 0  9997,2 53392  53.2166 251.6908 0001389  90.2049 269.9103 15.08840160 85425,6917.88,95.438,540.706,538.784,0.0
53392.0,STARLINK-4535,PAYLOAD,2024-02-18 20:49:04,15.08842933,0.0001353,53.2162,250.2033,87.9035,272.2112,0.00013091,1.796e-05,0.0,0 STARLINK-4535,1 53392U 22097E   24049.86741688  .00001796  00000-0  13091-3 0  9999,2 53392  53.2162 250.2033 0001353  87.9035 272.2112 15.08842933 85476,6917.871,95.437,540.672,538.8,0.0
53392.0,STARLINK-4535,PAYLOAD,2024-02-19 06:21:23,15.08842678,0.0001323,53.2158,248.4192,89.0477,271.0667,7.3509e-05,8.82e-06,0.0,0 STARLINK-4535,1 53392U 22097E   24050.26485785  .00000882  00000-0  73509-4 0  9994,2 53392  53.2158 248.4192 0001323  89.0477 271.0667 15.08842678 85531,6917.872,95.437,540.652,538.822,0.0
53392.0,STARLINK-4535,PAYLOAD,2024-02-19 19:04:29,15.08839479,0.0001367,53.2154,246.0399,88.8791,271.2358,-1.0698e-05,-4.58e-06,0.0,0 STARLINK-4535,1 53392U 22097E   24050.79478179 -.00000458  00000-0 -10698-4 0  9992,2 53392  53.2154 246.0399 0001367  88.8791 271.2358 15.08839479 84964,6917.882,95.438,540.693,538.801,0.0
53392.0,STARLINK-4535,PAYLOAD,2024-02-19 20:39:52,15.08842122,0.0001302,53.216,245.7435,93.285,266.8291,-5.4199e-05,-1.15e-05,0.0,0 STARLINK-4535,1 53392U 22097E   24050.86102033 -.00001150  00000-0 -54199-4 0  9997,2 53392  53.2160 245.7435 0001302  93.2850 266.8291 15.08842122 85622,6917.874,95.437,540.64,538.838,0.0
53392.0,STARLINK-4535,PAYLOAD,2024-02-20 12:33:43,15.08837969,0.0001492,53.2164,242.7694,87.9968,272.1195,1.9006e-05,1.5e-07,0.0,0 STARLINK-4535,1 53392U 22097E   24051.52342199  .00000015  00000-0  19006-4 0  9995,2 53392  53.2164 242.7694 0001492  87.9968 272.1195 15.08837969 85727,6917.887,95.438,540.784,538.719,0.0
53392.0,STARLINK-4535,PAYLOAD,2024-02-20 18:55:16,15.08839564,0.0001442,53.2161,241.5803,88.0215,272.0943,4.4761e-05,4.24e-06,0.0,0 STARLINK-4535,1 53392U 22097E   24051.78838013  .00000424  00000-0  44761-4 0  9998,2 53392  53.2161 241.5803 0001442  88.0215 272.0943 15.08839564 85762,6917.882,95.438,540.744,538.749,0.0
53392.0,STARLINK-4535,PAYLOAD,2024-02-21 06:02:57,15.08841018,0.0001392,53.2164,239.4986,87.3887,272.7265,5.9459e-05,6.59e-06,0.0,0 STARLINK-4535,1 53392U 22097E   24052.25205843  .00000659  00000-0  59459-4 0  9990,2 53392  53.2164 239.4986 0001392  87.3887 272.7265 15.08841018 85181,6917.877,95.437,540.705,538.779,0.0
53392.0,STARLINK-4535,PAYLOAD,2024-02-21 18:46:02,15.08841324,0.0001363,53.2162,237.1192,88.9046,271.2102,0.0001227,1.665e-05,0.0,0 STARLINK-4535,1 53392U 22097E   24052.78197644  .00001665  00000-0  12270-3 0  9994,2 53392  53.2162 237.1192 0001363  88.9046 271.2102 15.08841324 85910,6917.876,95.437,540.684,538.798,0.0
53392.0,STARLINK-4535,PAYLOAD,2024-02-22 18:36:49,15.08842014,0.0001351,53.2167,232.6575,91.3375,268.7772,4.2366e-05,3.86e-06,0.0,0 STARLINK-4535,1 53392U 22097E   24053.77557789  .00000386  00000-0  42366-4 0  9993,2 53392  53.2167 232.6575 0001351  91.3375 268.7772 15.08842014 85416,6917.874,95.437,540.674,538.805,0.0
53392.0,STARLINK-4535,PAYLOAD,2024-02-23 18:27:37,15.08837855,0.0001366,53.2171,228.1972,91.2675,268.8473,-4.3412e-06,-3.57e-06,0.0,0 STARLINK-4535,1 53392U 22097E   24054.76918322 -.00000357  00000-0 -43412-5 0  9991,2 53392  53.2171 228.1972 0001366  91.2675 268.8473 15.08837855 85562,6917.887,95.438,540.697,538.807,0.0
53392.0,STARLINK-4535,PAYLOAD,2024-02-23 21:38:23,15.08838446,0.0001347,53.2169,227.6022,90.6807,269.434,2.465e-06,-2.49e-06,0.0,0 STARLINK-4535,1 53392U 22097E   24054.90166259 -.00000249  00000-0  24650-5 0  9993,2 53392  53.2169 227.6022 0001347  90.6807 269.4340 15.08838446 86230,6917.885,95.438,540.682,538.818,0.0
53392.0,STARLINK-4535,PAYLOAD,2024-02-24 11:56:51,15.08838276,0.0001327,53.2169,224.9258,90.206,269.9084,5.6961e-05,6.19e-06,0.0,0 STARLINK-4535,1 53392U 22097E   24055.49782196  .00000619  00000-0  56961-4 0  9991,2 53392  53.2169 224.9258 0001327  90.2060 269.9084 15.08838276 86327,6917.886,95.438,540.669,538.833,0.0
53392.0,STARLINK-4535,PAYLOAD,2024-02-24 18:18:23,15.08845022,0.0001334,53.217,223.7363,89.0288,271.0857,9.7234e-05,1.26e-05,0.0,0 STARLINK-4535,1 53392U 22097E   24055.76277697  .00001260  00000-0  97234-4 0  9997,2 53392  53.2170 223.7363 0001334  89.0288 271.0857 15.08845022 85710,6917.865,95.437,540.653,538.807,0.0
53392.0,STARLINK-4535,PAYLOAD,2024-02-24 21:29:09,15.08852534,0.0001354,53.2168,223.1409,90.0988,270.0159,4.4336e-05,4.18e-06,0.0,0 STARLINK-4535,1 53392U 22097E   24055.89525329  .00000418  00000-0  44336-4 0  9998,2 53392  53.2168 223.1409 0001354  90.0988 270.0159 15.08852534 86387,6917.842,95.437,540.644,538.77,0.0
53392.0,STARLINK-4535,PAYLOAD,2024-02-25 03:50:43,15.08837425,0.0001476,53.2152,221.9513,83.3266,276.7894,7.5928e-06,-1.67e-06,0.0,0 STARLINK-4535,1 53392U 22097E   24056.16022403 -.00000167  00000-0  75928-5 0  9998,2 53392  53.2152 221.9513 0001476  83.3266 276.7894 15.08837425 85774,6917.888,95.438,540.774,538.732,0.0
53392.0,STARLINK-4535,PAYLOAD,2024-02-25 19:44:34,15.08838264,0.000147,53.2178,218.9758,73.3057,286.8096,0.00019678,2.845e-05,0.0,0 STARLINK-4535,1 53392U 22097E   24056.82261997  .00002845  00000-0  19678-3 0  9996,2 53392  53.2178 218.9758 0001470  73.3057 286.8096 15.08838264 86522,6917.886,95.438,540.768,538.734,0.0
53392.0,STARLINK-4535,PAYLOAD,2024-02-26 03:41:29,15.08850327,0.0001442,53.2177,217.4901,74.7265,285.3887,-8.657e-05,-1.666e-05,0.0,0 STARLINK-4535,1 53392U 22097E   24057.15381898 -.00001666  00000-0 -86570-4 0  9994,2 53392  53.2177 217.4901 0001442  74.7265 285.3887 15.08850327 85929,6917.849,95.437,540.711,538.716,0.0
53392.0,STARLINK-4535,PAYLOAD,2024-02-26 14:49:13,15.08833541,0.0002295,53.217,215.4096,79.8498,280.2753,-6.0265e-05,-1.247e-05,0.0,0 STARLINK-4535,1 53392U 22097E   24057.61751480 -.00001247  00000-0 -60265-4 0  9991,2 53392  53.2170 215.4096 0002295  79.8498 280.2753 15.08833541 86641,6917.9,95.438,541.353,538.177,0.0
53392.0,STARLINK-4535,PAYLOAD,2024-02-26 17:59:59,15.08831027,0.0001486,53.2168,214.8127,68.8464,291.2686,-9.5144e-05,-1.801e-05,0.0,0 STARLINK-4535,1 53392U 22097E   24057.74999505 -.00001801  00000-0 -95144-4 0  9997,2 53392  53.2168 214.8127 0001486  68.8464 291.2686 15.08831027 86013,6917.908,95.438,540.801,538.745,0.0
53392.0,STARLINK-4535,PAYLOAD,2024-02-27 14:39:59,15.08842536,0.0001386,53.2173,210.9523,85.761,274.354,7.7303e-05,9.43e-06,0.0,0 STARLINK-4535,1 53392U 22097E   24058.61110579  .00000943  00000-0  77303-4 0  9991,2 53392  53.2173 210.9523 0001386  85.7610 274.3540 15.08842536 86799,6917.873,95.437,540.696,538.779,0.0
53392.0,STARLINK-4535,PAYLOAD,2024-02-27 19:26:08,15.08852638,0.0001245,53.2161,210.0596,89.0576,271.0559,6.8271e-05,7.99e-06,0.0,0 STARLINK-4535,1 53392U 22097E   24058.80981950  .00000799  00000-0  68271-4 0  9994,2 53392  53.2161 210.0596 0001245  89.0576 271.0559 15.08852638 86179,6917.842,95.437,540.568,538.845,0.0
53392.0,STARLINK-4535,PAYLOAD,2024-02-28 03:23:04,15.08846211,0.0001221,53.2152,208.5712,88.7341,271.3791,-6.4952e-07,-2.98e-06,0.0,0 STARLINK-4535,1 53392U 22097E   24059.14102434 -.00000298  00000-0 -64952-6 0  9994,2 53392  53.2152 208.5712 0001221  88.7341 271.3791 15.08846211 86228,6917.861,95.437,540.571,538.882,0.0
53392.0,STARLINK-4535,PAYLOAD,2024-02-28 14:30:47,15.08832049,0.000131,53.2165,206.4885,86.8438,273.2704,0.00016402,2.323e-05,0.0,0 STARLINK-4535,1 53392U 22097E   24059.60471151  .00002323  00000-0  16402-3 0  9993,2 53392  53.2165 206.4885 0001310  86.8438 273.2704 15.08832049 86943,6917.905,95.438,540.676,538.863,0.0
53392.0,STARLINK-4535,PAYLOAD,2024-02-28 19:16:55,15.08842391,0.0001486,53.2181,205.5943,117.7708,242.3435,0.00012366,1.681e-05,0.0,0 STARLINK-4535,1 53392U 22097E   24059.80342515  .00001681  00000-0  12366-3 0  9997,2 53392  53.2181 205.5943 0001486 117.7708 242.3435 15.08842391 86976,6917.873,95.437,540.766,538.71,0.0
53392.0,STARLINK-4535,PAYLOAD,2024-02-29 12:46:10,15.08844861,0.0001483,53.218,202.3233,116.5564,243.558,4.646e-05,4.52e-06,0.0,0 STARLINK-4535,1 53392U 22097E   24060.53206559  .00000452  00000-0  46460-4 0  9994,2 53392  53.2180 202.3233 0001483 116.5564 243.5580 15.08844861 86435,6917.866,95.437,540.756,538.705,0.0
53392.0,STARLINK-4535,PAYLOAD,2024-02-29 14:21:33,15.08847547,0.0001673,53.218,202.0257,119.1676,240.9484,1.675e-05,-2.1e-07,0.0,0 STARLINK-4535,1 53392U 22097E   24060.59830440 -.00000021  00000-0  16750-4 0  9994,2 53392  53.2180 202.0257 0001673 119.1676 240.9484 15.08847547 87093,6917.857,95.437,540.88,538.565,0.0
53392.0,STARLINK-4535,PAYLOAD,2024-02-29 19:07:41,15.08866622,0.0001374,53.2148,201.1366,82.6297,277.4851,0.00020555,2.987e-05,0.0,0 STARLINK-4535,1 53392U 22097E   24060.79700615  .00002987  00000-0  20555-3 0  9995,2 53392  53.2148 201.1366 0001374  82.6297 277.4851 15.08866622 86478,6917.799,95.436,540.615,538.714,0.0
